[{"OBJECT_NAME":"STARLINK-31445","OBJECT_ID":"2024-056S","EPOCH":"2026-03-09T18:19:03.882432","MEAN_MOTION":15.2756585,"ECCENTRICITY":0.0001523,"INCLINATION":42.9999,"RA_OF_ASC_NODE":237.3767,"ARG_OF_PERICENTER":276.6676,"MEAN_ANOMALY":83.4003,"EPHEMERIS_TYPE":0,"CLASSIFICATION_TYPE":"U","NORAD_CAT_ID":59312,"ELEMENT_SET_NO":999,"REV_AT_EPOCH":11108,"BSTAR":-5.7292567e-5,"MEAN_MOTION_DOT":-1.838e-5,"MEAN_MOTION_DDOT":0},{"OBJECT_NAME":"FLOCK 4G-29","OBJECT_ID":"2025-009AK","EPOCH":"2026-03-09T19:33:04.927968","MEAN_MOTION":15.27382318,"ECCENTRICITY":0.00013664,"INCLINATION":97.4058,"RA_OF_ASC_NODE":151.3683,"ARG_OF_PERICENTER":288.0502,"MEAN_ANOMALY":72.0588,"EPHEMERIS_TYPE":0,"CLASSIFICATION_TYPE":"U","NORAD_CAT_ID":62642,"ELEMENT_SET_NO":999,"REV_AT_EPOCH":6372,"BSTAR":0.0004183135,"MEAN_MOTION_DOT":0.00011147,"MEAN_MOTION_DDOT":0}]
